{"type": "FeatureCollection", "features": [ {"type": "Feature", "properties": {"norad_id": 34819, "name": "COSMOS 2251 DEB", "group": "cosmos-2251-debris", "lat": 34.90196029983463, "lon": 156.66617311459544, "alt_km": 688.1835180658773, "timestamp": "2025-12-11T10:53:16.285209+00:00", "meta": {"OBJECT_NAME": "COSMOS 2251 DEB", "OBJECT_ID": "1993-036ABJ", "EPOCH": "2025-12-09T21:41:51.224640", "MEAN_MOTION": 14.63892789, "ECCENTRICITY": 0.00157861, "INCLINATION": 74.0186, "RA_OF_ASC_NODE": 148.1101, "ARG_OF_PERICENTER": 242.0271, "MEAN_ANOMALY": 271.3932, "EPHEMERIS_TYPE": 0, "CLASSIFICATION_TYPE": "U", "NORAD_CAT_ID": 34819, "ELEMENT_SET_NO": 999, "REV_AT_EPOCH": 88187, "BSTAR": 0.0022468866, "MEAN_MOTION_DOT": 0.00011759, "MEAN_MOTION_DDOT": 0}, "tle": {"line1": "1 34819U 93036ABJ 25343.90406510  .00011759  00000+0  22469-2 0  9995", "line2": "2 34819  74.0186 148.1101 0015786 242.0271 271.3932 14.63892789881870"}}, "geometry": {"type": "Point", "coordinates": [156.66617311459544, 34.90196029983463]}}, {"type": "Feature", "properties": {"norad_id": 34823, "name": "COSMOS 2251 DEB", "group": "cosmos-2251-debris", "lat": 52.86799696804721, "lon": -97.48973464484375, "alt_km": 658.0696220292375, "timestamp": "2025-12-11T10:53:16.285220+00:00", "meta": {"OBJECT_NAME": "COSMOS 2251 DEB", "OBJECT_ID": "1993-036ABN", "EPOCH": "2025-12-10T14:30:29.359008", "MEAN_MOTION": 14.54904355, "ECCENTRICITY": 0.0154887, "INCLINATION": 74.0414, "RA_OF_ASC_NODE": 106.322, "ARG_OF_PERICENTER": 191.6219, "MEAN_ANOMALY": 168.1356, "EPHEMERIS_TYPE": 0, "CLASSIFICATION_TYPE": "U", "NORAD_CAT_ID": 34823, "ELEMENT_SET_NO": 999, "REV_AT_EPOCH": 88350, "BSTAR": 0.0013618, "MEAN_MOTION_DOT": 6.85e-05, "MEAN_MOTION_DDOT": 0}, "tle": {"line1": "1 34823U 93036ABN 25344.60450647  .00006850  00000+0  13618-2 0  9990", "line2": "2 34823  74.0414 106.3220 0154887 191.6219 168.1356 14.54904355883502"}}, "geometry": {"type": "Point", "coordinates": [-97.48973464484375, 52.86799696804721]}}, {"type": "Feature", "properties": {"norad_id": 34845, "name": "COSMOS 2251 DEB", "group": "cosmos-2251-debris", "lat": 42.16217773833518, "lon": -44.28463307893213, "alt_km": 751.2352859041384, "timestamp": "2025-12-11T10:53:16.285230+00:00", "meta": {"OBJECT_NAME": "COSMOS 2251 DEB", "OBJECT_ID": "1993-036ABP", "EPOCH": "2025-12-09T20:04:05.418048", "MEAN_MOTION": 14.45850049, "ECCENTRICITY": 0.00222586, "INCLINATION": 74.0237, "RA_OF_ASC_NODE": 153.7694, "ARG_OF_PERICENTER": 315.2139, "MEAN_ANOMALY": 44.7222, "EPHEMERIS_TYPE": 0, "CLASSIFICATION_TYPE": "U", "NORAD_CAT_ID": 34845, "ELEMENT_SET_NO": 999, "REV_AT_EPOCH": 87424, "BSTAR": 0.00046671234, "MEAN_MOTION_DOT": 1.636e-05, "MEAN_MOTION_DDOT": 0}, "tle": {"line1": "1 34845U 93036ABP 25343.83617382  .00001636  00000+0  46671-3 0  9992", "line2": "2 34845  74.0237 153.7694 0022258 315.2139  44.7222 14.45850049874243"}}, "geometry": {"type": "Point", "coordinates": [-44.28463307893213, 42.16217773833518]}}, {"type": "Feature", "properties": {"norad_id": 34846, "name": "COSMOS 2251 DEB", "group": "cosmos-2251-debris", "lat": 63.71206348342087, "lon": -60.3901410922421, "alt_km": 730.8118033893688, "timestamp": "2025-12-11T10:53:16.285241+00:00", "meta": {"OBJECT_NAME": "COSMOS 2251 DEB", "OBJECT_ID": "1993-036ABQ", "EPOCH": "2025-12-10T22:57:29.889216", "MEAN_MOTION": 14.47196222, "ECCENTRICITY": 0.0026076, "INCLINATION": 74.0307, "RA_OF_ASC_NODE": 265.1097, "ARG_OF_PERICENTER": 331.8091, "MEAN_ANOMALY": 28.1654, "EPHEMERIS_TYPE": 0, "CLASSIFICATION_TYPE": "U", "NORAD_CAT_ID": 34846, "ELEMENT_SET_NO": 999, "REV_AT_EPOCH": 87378, "BSTAR": 0.0013948, "MEAN_MOTION_DOT": 5.092e-05, "MEAN_MOTION_DDOT": 0}, "tle": {"line1": "1 34846U 93036ABQ 25344.95659594  .00005092  00000+0  13948-2 0  9998", "line2": "2 34846  74.0307 265.1097 0026076 331.8091  28.1654 14.47196222873781"}}, "geometry": {"type": "Point", "coordinates": [-60.3901410922421, 63.71206348342087]}}, {"type": "Feature", "properties": {"norad_id": 34852, "name": "COSMOS 2251 DEB", "group": "cosmos-2251-debris", "lat": -1.9313348539944357, "lon": 85.89003718202991, "alt_km": 782.6951543596633, "timestamp": "2025-12-11T10:53:16.285251+00:00", "meta": {"OBJECT_NAME": "COSMOS 2251 DEB", "OBJECT_ID": "1993-036ABW", "EPOCH": "2025-12-11T03:21:40.223232", "MEAN_MOTION": 14.37002528, "ECCENTRICITY": 0.0016084, "INCLINATION": 74.033, "RA_OF_ASC_NODE": 265.9134, "ARG_OF_PERICENTER": 9.31, "MEAN_ANOMALY": 350.8348, "EPHEMERIS_TYPE": 0, "CLASSIFICATION_TYPE": "U", "NORAD_CAT_ID": 34852, "ELEMENT_SET_NO": 999, "REV_AT_EPOCH": 87511, "BSTAR": 0.00017988, "MEAN_MOTION_DOT": 5.08e-06, "MEAN_MOTION_DDOT": 0}, "tle": {"line1": "1 34852U 93036ABW 25345.14004888  .00000508  00000+0  17988-3 0  9993", "line2": "2 34852  74.0330 265.9134 0016084   9.3100 350.8348 14.37002528875118"}}, "geometry": {"type": "Point", "coordinates": [85.89003718202991, -1.9313348539944357]}}, {"type": "Feature", "properties": {"norad_id": 34854, "name": "COSMOS 2251 DEB", "group": "cosmos-2251-debris", "lat": -72.24359054929954, "lon": 44.5300465526719, "alt_km": 601.3874297306293, "timestamp": "2025-12-11T10:53:16.285262+00:00", "meta": {"OBJECT_NAME": "COSMOS 2251 DEB", "OBJECT_ID": "1993-036ABY", "EPOCH": "2025-12-10T04:25:53.682240", "MEAN_MOTION": 14.76585117, "ECCENTRICITY": 0.0066172, "INCLINATION": 74.0287, "RA_OF_ASC_NODE": 163.5908, "ARG_OF_PERICENTER": 275.7691, "MEAN_ANOMALY": 83.5942, "EPHEMERIS_TYPE": 0, "CLASSIFICATION_TYPE": "U", "NORAD_CAT_ID": 34854, "ELEMENT_SET_NO": 999, "REV_AT_EPOCH": 71844, "BSTAR": 0.00096088, "MEAN_MOTION_DOT": 6.925e-05, "MEAN_MOTION_DDOT": 0}, "tle": {"line1": "1 34854U 93036ABY 25344.18464910  .00006925  00000+0  96088-3 0  9991", "line2": "2 34854  74.0287 163.5908 0066172 275.7691  83.5942 14.76585117718445"}}, "geometry": {"type": "Point", "coordinates": [44.5300465526719, -72.24359054929954]}}, {"type": "Feature", "properties": {"norad_id": 34856, "name": "COSMOS 2251 DEB", "group": "cosmos-2251-debris", "lat": -19.167762930102526, "lon": -86.77803129547736, "alt_km": 532.6315979782885, "timestamp": "2025-12-11T10:53:16.285273+00:00", "meta": {"OBJECT_NAME": "COSMOS 2251 DEB", "OBJECT_ID": "1993-036ACA", "EPOCH": "2025-12-10T13:20:08.985120", "MEAN_MOTION": 15.05866818, "ECCENTRICITY": 0.0033073, "INCLINATION": 73.9963, "RA_OF_ASC_NODE": 89.3417, "ARG_OF_PERICENTER": 226.8669, "MEAN_ANOMALY": 146.927, "EPHEMERIS_TYPE": 0, "CLASSIFICATION_TYPE": "U", "NORAD_CAT_ID": 34856, "ELEMENT_SET_NO": 999, "REV_AT_EPOCH": 89079, "BSTAR": 0.0030573, "MEAN_MOTION_DOT": 0.00045205, "MEAN_MOTION_DDOT": 0}, "tle": {"line1": "1 34856U 93036ACA 25344.55565955  .00045205  00000+0  30573-2 0  9995", "line2": "2 34856  73.9963  89.3417 0033073 226.8669 146.9270 15.05866818890792"}}, "geometry": {"type": "Point", "coordinates": [-86.77803129547736, -19.167762930102526]}}, {"type": "Feature", "properties": {"norad_id": 34857, "name": "COSMOS 2251 DEB", "group": "cosmos-2251-debris", "lat": 62.781390428957415, "lon": 143.1527096116805, "alt_km": 735.6207150891505, "timestamp": "2025-12-11T10:53:16.285284+00:00", "meta": {"OBJECT_NAME": "COSMOS 2251 DEB", "OBJECT_ID": "1993-036ACB", "EPOCH": "2025-12-10T10:09:42.100416", "MEAN_MOTION": 14.5885085, "ECCENTRICITY": 0.00659222, "INCLINATION": 74.0153, "RA_OF_ASC_NODE": 111.2471, "ARG_OF_PERICENTER": 236.0948, "MEAN_ANOMALY": 183.224, "EPHEMERIS_TYPE": 0, "CLASSIFICATION_TYPE": "U", "NORAD_CAT_ID": 34857, "ELEMENT_SET_NO": 999, "REV_AT_EPOCH": 87867, "BSTAR": 0.001891387, "MEAN_MOTION_DOT": 9.104e-05, "MEAN_MOTION_DDOT": 0}, "tle": {"line1": "1 34857U 93036ACB 25344.42340394  .00009104  00000+0  18914-2 0  9993", "line2": "2 34857  74.0153 111.2471 0065922 236.0948 183.2240 14.58850850878672"}}, "geometry": {"type": "Point", "coordinates": [143.1527096116805, 62.781390428957415]}}, {"type": "Feature", "properties": {"norad_id": 34859, "name": "COSMOS 2251 DEB", "group": "cosmos-2251-debris", "lat": 54.19687145181473, "lon": 138.94283848764593, "alt_km": 519.0142054773214, "timestamp": "2025-12-11T10:53:16.285294+00:00", "meta": {"OBJECT_NAME": "COSMOS 2251 DEB", "OBJECT_ID": "1993-036ACD", "EPOCH": "2025-12-11T01:06:52.574976", "MEAN_MOTION": 15.14253483, "ECCENTRICITY": 0.0002538, "INCLINATION": 74.0303, "RA_OF_ASC_NODE": 343.1808, "ARG_OF_PERICENTER": 332.7735, "MEAN_ANOMALY": 90.6317, "EPHEMERIS_TYPE": 0, "CLASSIFICATION_TYPE": "U", "NORAD_CAT_ID": 34859, "ELEMENT_SET_NO": 999, "REV_AT_EPOCH": 88333, "BSTAR": 0.0070282, "MEAN_MOTION_DOT": 0.00130884, "MEAN_MOTION_DDOT": 0}, "tle": {"line1": "1 34859U 93036ACD 25345.04644184  .00130884  00000+0  70282-2 0  9994", "line2": "2 34859  74.0303 343.1808 0002538 332.7735  90.6317 15.14253483883330"}}, "geometry": {"type": "Point", "coordinates": [138.94283848764593, 54.19687145181473]}}, {"type": "Feature", "properties": {"norad_id": 34861, "name": "COSMOS 2251 DEB", "group": "cosmos-2251-debris", "lat": 73.27508863756348, "lon": 125.98344855532034, "alt_km": 548.0577189806099, "timestamp": "2025-12-11T10:53:16.285305+00:00", "meta": {"OBJECT_NAME": "COSMOS 2251 DEB", "OBJECT_ID": "1993-036ACF", "EPOCH": "2025-12-11T04:14:55.474080", "MEAN_MOTION": 15.0241202, "ECCENTRICITY": 0.0006851, "INCLINATION": 74.0187, "RA_OF_ASC_NODE": 54.043, "ARG_OF_PERICENTER": 51.6775, "MEAN_ANOMALY": 337.747, "EPHEMERIS_TYPE": 0, "CLASSIFICATION_TYPE": "U", "NORAD_CAT_ID": 34861, "ELEMENT_SET_NO": 999, "REV_AT_EPOCH": 88069, "BSTAR": 0.0036723, "MEAN_MOTION_DOT": 0.0004899, "MEAN_MOTION_DDOT": 0}, "tle": {"line1": "1 34861U 93036ACF 25345.17703095  .00048990  00000+0  36723-2 0  9996", "line2": "2 34861  74.0187  54.0430 0006851  51.6775 337.7470 15.02412020880697"}}, "geometry": {"type": "Point", "coordinates": [125.98344855532034, 73.27508863756348]}}]}